{
"type": "FeatureCollection",
"name": "Bassin",
"crs": { "type": "name", "properties": { "name": "urn:ogc:def:crs:OGC:1.3:CRS84" } },
"features": [
{ "type": "Feature", "properties": { "OBJECTID_1": 1, "OBJECTID": 1, "Shape_Leng": 530209.68076200003, "Shape_Area": 10445778021.6, "Périmetre": 530209.681, "Superficie": 10445778000.0 }, "geometry": { "type": "MultiLineString", "coordinates": [ [ [ 2.249222510004237, 9.156794300351134 ], [ 2.250238542059398, 9.156509062495729 ], [ 2.249507747724409, 9.155778268170716 ], [ 2.249222510004237, 9.156794300351134 ] ], [ [ 2.249222510004237, 9.156794300351134 ], [ 2.247130835061019, 9.156385974890965 ], [ 2.24548085108349, 9.155535958648535 ], [ 2.242130834811448, 9.154719308032334 ], [ 2.24048085187043, 9.153869292188631 ], [ 2.238736263352172, 9.153022938033109 ], [ 2.23714751817684, 9.151369291546247 ], [ 2.235464168968928, 9.150552641131963 ], [ 2.234614559500465, 9.149668343508976 ], [ 2.234681697879596, 9.146377633155955 ], [ 2.234629512956297, 9.14381934496334 ], [ 2.230581864309098, 9.139930388496698 ], [ 2.226105647641542, 9.138839181008917 ], [ 2.219373571668604, 9.138976612159906 ], [ 2.216281836114532, 9.140569324619753 ], [ 2.214599096643568, 9.140534940953579 ], [ 2.212936295503722, 9.142265695067175 ], [ 2.209630835033243, 9.143869292301238 ], [ 2.207821447968442, 9.144801400743132 ], [ 2.201722510409911, 9.144676990378953 ], [ 2.196964209136865, 9.144774036617971 ], [ 2.193764542707711, 9.148104318240117 ], [ 2.193814387927142, 9.150544300408194 ], [ 2.1937888550447, 9.15179430029408 ], [ 2.19384683883638, 9.15463864004532 ], [ 2.19107736852566, 9.161466541604732 ], [ 2.18626576365762, 9.161368275033251 ], [ 2.184647518409581, 9.163052641309633 ], [ 2.183797501699266, 9.163869291466501 ], [ 2.182944230434334, 9.165628223542962 ], [ 2.170380449118757, 9.164461027723798 ], [ 2.16881418510216, 9.158035958219214 ], [ 2.167301733509944, 9.156582813052312 ], [ 2.159603369642967, 9.153546415832025 ], [ 2.159674068787357, 9.150085926379035 ], [ 2.16214782331436, 9.148885771352916 ], [ 2.162085770746669, 9.145843270957668 ], [ 2.156216122134136, 9.14471930794214 ], [ 2.152232865744752, 9.148865121218902 ], [ 2.148780208485751, 9.1497067959041 ], [ 2.148814388522073, 9.151377633694056 ], [ 2.148747452744056, 9.154653389999197 ], [ 2.151314490483578, 9.158036365684376 ], [ 2.151297298382472, 9.158877633168519 ], [ 2.151314388652884, 9.159710966998787 ], [ 2.151297197130793, 9.16055142043558 ], [ 2.152226558882083, 9.16417782417224 ], [ 2.152113643256034, 9.16971096710968 ], [ 2.152164302466011, 9.172194486958345 ], [ 2.150457352893989, 9.174712695843038 ], [ 2.152738847165004, 9.176904773763482 ], [ 2.151297197151702, 9.179703235655364 ], [ 2.151314490139691, 9.180552437809185 ], [ 2.149630835069642, 9.181369291533949 ], [ 2.147019039083428, 9.183139718454626 ], [ 2.143082780457971, 9.185049407074731 ], [ 2.141998490960056, 9.189497242373841 ], [ 2.138797502312874, 9.190535958131992 ], [ 2.13798085186781, 9.192219308353238 ], [ 2.134630529701152, 9.196369698414387 ], [ 2.134664302590877, 9.198027820926491 ], [ 2.132914221370912, 9.200609709199146 ], [ 2.129069718960284, 9.202474842042104 ], [ 2.126763403596136, 9.207228768600094 ], [ 2.123733719871554, 9.207167021129063 ], [ 2.119708757085377, 9.211356271276252 ], [ 2.117543331170156, 9.212406787418214 ], [ 2.115325008829965, 9.215790271697347 ], [ 2.112137447564857, 9.214699166652986 ], [ 2.110480851634875, 9.215552641070634 ], [ 2.107910864506642, 9.216799488214871 ], [ 2.10297963068181, 9.215535653286921 ], [ 2.101523637204837, 9.215565356994425 ], [ 2.097147517871545, 9.218885975043904 ], [ 2.094630835122532, 9.219702624937058 ], [ 2.092980851166605, 9.220552641280898 ], [ 2.091297501574218, 9.22136929162569 ], [ 2.087359513621516, 9.223397998529107 ], [ 2.084519242239323, 9.229252287831534 ], [ 2.08464782364371, 9.235552030939377 ], [ 2.083730872100241, 9.237332019598348 ], [ 2.078680517427362, 9.242184314730082 ], [ 2.075480851414544, 9.240535958660713 ], [ 2.072125240486475, 9.239447091588975 ], [ 2.068528947128062, 9.237009347363937 ], [ 2.065479936276113, 9.238052946824027 ], [ 2.064222509957983, 9.238027311464243 ], [ 2.062540787650402, 9.238061593201962 ], [ 2.055914200702563, 9.235373706403344 ], [ 2.047139176550288, 9.235552845280068 ], [ 2.046247554869704, 9.235534635758198 ], [ 2.04464283843153, 9.233864408953558 ], [ 2.040480037856626, 9.235552946673709 ], [ 2.038813880126615, 9.235518970750904 ], [ 2.037572526250782, 9.236810982931805 ], [ 2.035447485341821, 9.238852609246861 ], [ 2.0338141853213, 9.240552641192334 ], [ 2.032209570269676, 9.242094287778597 ], [ 2.02476755406774, 9.243133207682307 ], [ 2.019083654661345, 9.247446155556201 ], [ 2.017980851662341, 9.249719308058374 ], [ 2.012960404758796, 9.253699716307958 ], [ 2.012997839208946, 9.255536263960872 ], [ 2.012130835019309, 9.256369291571273 ], [ 2.01071420941751, 9.257843799280019 ], [ 2.009106543306219, 9.264438444880586 ], [ 2.007964169017749, 9.265535958472572 ], [ 2.006330867974038, 9.267235990768439 ], [ 2.003906246050987, 9.269565499654684 ], [ 2.000480851263587, 9.273885974543063 ], [ 1.999627986832208, 9.274705371459408 ], [ 2.000497738285153, 9.278951791119132 ], [ 2.005480851372642, 9.281369291466437 ], [ 2.010137528671938, 9.283768176552952 ], [ 2.008797501930761, 9.28636929188691 ], [ 2.007980851201911, 9.292219308583791 ], [ 2.007064205132153, 9.293998686779132 ], [ 2.005039160241071, 9.295944284136159 ], [ 2.003764543039238, 9.297270984858732 ], [ 2.003853858095717, 9.301646900255287 ], [ 1.998035782871215, 9.305461393940735 ], [ 1.996265255460087, 9.307304248732665 ], [ 1.996314388518323, 9.309710966565975 ], [ 1.996294653993574, 9.310675017024279 ], [ 1.994330339106939, 9.316413847958074 ], [ 1.992139176744155, 9.316369088018153 ], [ 1.990055843176177, 9.316411609739179 ], [ 1.987964371890298, 9.316368986907822 ], [ 1.986182552500691, 9.31908667852295 ], [ 1.986347856224874, 9.327186959339532 ], [ 1.985039160887108, 9.328444283390953 ], [ 1.979953609687781, 9.33373745554036 ], [ 1.97684193594758, 9.335247059062782 ], [ 1.974998673911885, 9.33904649705641 ], [ 1.963939103109909, 9.338820870664165 ], [ 1.95997517498427, 9.340177682070831 ], [ 1.958094376496692, 9.342135079964685 ], [ 1.953823136581008, 9.345301379807331 ], [ 1.947866512642281, 9.347234363908306 ], [ 1.945344336308218, 9.347182890084648 ], [ 1.940541378291071, 9.344708525670157 ], [ 1.93140329610171, 9.343814767166341 ], [ 1.928220923414989, 9.345454171454485 ], [ 1.921381934325143, 9.351195342064294 ], [ 1.920480648307239, 9.353052946820471 ], [ 1.919639176315876, 9.353035755196775 ], [ 1.918389176498413, 9.35306128849359 ], [ 1.913895463613162, 9.352969633807417 ], [ 1.911314184560285, 9.354719308376584 ], [ 1.908288264941974, 9.355701160559933 ], [ 1.907147518110804, 9.358052641455819 ], [ 1.904861751307977, 9.361424732419991 ], [ 1.902139176450542, 9.361369088101661 ], [ 1.901214189170614, 9.36138800955211 ], [ 1.898042090058526, 9.364689604166562 ], [ 1.894614152675335, 9.366352608648393 ], [ 1.890606278635567, 9.36841732698821 ], [ 1.889647517908411, 9.371467354862071 ], [ 1.89131418489384, 9.374702625438854 ], [ 1.892310075281654, 9.376755339635528 ], [ 1.892129513208323, 9.385602588635674 ], [ 1.890039160747016, 9.387610950762157 ], [ 1.888405859224169, 9.389310982719067 ], [ 1.886842749165196, 9.390812752679286 ], [ 1.88869679436712, 9.399864775724849 ], [ 1.887124019882427, 9.401375903709647 ], [ 1.888814185094777, 9.403869291771512 ], [ 1.8896308350752, 9.407219308337607 ], [ 1.890480851698229, 9.408869291730687 ], [ 1.891297502383258, 9.411516386775116 ], [ 1.888792619280169, 9.416378752392507 ], [ 1.891237280662279, 9.419985217693982 ], [ 1.8921308348974, 9.426385974416926 ], [ 1.896314489729922, 9.431369699008874 ], [ 1.896278784484944, 9.433119271818319 ], [ 1.893827206062698, 9.435474719846168 ], [ 1.892980851580705, 9.437219308527418 ], [ 1.890464168344706, 9.438035958643791 ], [ 1.888856502359052, 9.442990182485506 ], [ 1.887130835531451, 9.445535958369632 ], [ 1.88620249066148, 9.448396778033779 ], [ 1.886369625474348, 9.456586983618394 ], [ 1.882964168589495, 9.46220262538194 ], [ 1.882147518431243, 9.463885975231417 ], [ 1.879630835308981, 9.465535958706328 ], [ 1.87714751780761, 9.46721930795607 ], [ 1.875397538335485, 9.468068306910931 ], [ 1.869023433296682, 9.467938200717596 ], [ 1.862980851166742, 9.470552641660339 ], [ 1.860464168816441, 9.471369292197105 ], [ 1.858861690752302, 9.473037179385653 ], [ 1.856297501627554, 9.473869292111015 ], [ 1.853247982113275, 9.475936451138526 ], [ 1.851314184573529, 9.478885974577635 ], [ 1.848650610248089, 9.479750334702775 ], [ 1.845889176692948, 9.479693978932472 ], [ 1.843697506345152, 9.479738737586041 ], [ 1.839742326586616, 9.483855254075447 ], [ 1.834549454971204, 9.485535958898799 ], [ 1.830472510084209, 9.483435738536945 ], [ 1.827278438685165, 9.48508114457054 ], [ 1.826314184706522, 9.488052641542867 ], [ 1.822958065031572, 9.490252959234496 ], [ 1.82299834823091, 9.492225106656313 ], [ 1.817979020531913, 9.491368986415862 ], [ 1.817131750514526, 9.491386280339714 ], [ 1.814007869489183, 9.490317045746496 ], [ 1.810214941569154, 9.494264697810591 ], [ 1.805570572950598, 9.495771859670144 ], [ 1.80447753488684, 9.493518950444781 ], [ 1.800769242424731, 9.495429350290145 ], [ 1.799647518508412, 9.498885975167445 ], [ 1.797249446604527, 9.500049406217457 ], [ 1.796314185276391, 9.503885974670446 ], [ 1.795464168770835, 9.504702625315833 ], [ 1.794647518006693, 9.508052641566509 ], [ 1.793797196675996, 9.508869597183972 ], [ 1.793814490331621, 9.509718698187974 ], [ 1.792831925635723, 9.511625944910008 ], [ 1.789646602957785, 9.510535653233918 ], [ 1.788805843361089, 9.510552844557813 ], [ 1.787972510236709, 9.510535755348812 ], [ 1.787139176331342, 9.510552844529141 ], [ 1.783609005163912, 9.510480721561597 ], [ 1.780480851895749, 9.508869291988187 ], [ 1.778716121966719, 9.508052641319313 ], [ 1.774736426318528, 9.510102812337442 ], [ 1.773814184786978, 9.513885974785033 ], [ 1.767865800624379, 9.514854297268492 ], [ 1.766312659388408, 9.518055693515937 ], [ 1.762145992713459, 9.51720231983351 ], [ 1.760447485660783, 9.517237008728971 ], [ 1.760515030786558, 9.520544300162669 ], [ 1.760455521794123, 9.523460966682762 ], [ 1.760492549532887, 9.525278389773204 ], [ 1.754941097107412, 9.527079894049177 ], [ 1.753091223806552, 9.532780526302304 ], [ 1.751139726495158, 9.537591622362028 ], [ 1.752147518520859, 9.540535958488412 ], [ 1.752964168518924, 9.545552641077993 ], [ 1.753814184823017, 9.548035958419158 ], [ 1.754969071467, 9.551595020284102 ], [ 1.753007198338643, 9.555403512483203 ], [ 1.752147517760693, 9.558052641491253 ], [ 1.751297502239332, 9.55970262530688 ], [ 1.750276688697241, 9.561806812635185 ], [ 1.746291398577404, 9.564419676199901 ], [ 1.746331376426582, 9.566377633744496 ], [ 1.746288855389279, 9.568460966609425 ], [ 1.746323136338242, 9.570143350014689 ], [ 1.743797502053488, 9.573869291661733 ], [ 1.742899573333295, 9.575720183143684 ], [ 1.742989497813676, 9.580127633772069 ], [ 1.742962540640825, 9.581449756396195 ], [ 1.745480851606309, 9.58386929220933 ], [ 1.747069596276168, 9.585522937585882 ], [ 1.748814185016004, 9.586369292151161 ], [ 1.753547868487969, 9.589239928083302 ], [ 1.749688716932691, 9.592947661157931 ], [ 1.747980851275927, 9.595552641856179 ], [ 1.745464169022529, 9.597202625018644 ], [ 1.744647518097407, 9.598052641549517 ], [ 1.743797501512514, 9.598869291675054 ], [ 1.742980851500602, 9.599719308611858 ], [ 1.742130834959041, 9.600535958981446 ], [ 1.741281225855766, 9.601420307364505 ], [ 1.7413305629345, 9.603838113456899 ], [ 1.740447790414798, 9.606417153410858 ], [ 1.740498552011552, 9.608901691432056 ], [ 1.738680822789882, 9.610648060223575 ], [ 1.73714751789778, 9.61932308850421 ], [ 1.7396475178166, 9.620535958937772 ], [ 1.741297502193231, 9.622300688800189 ], [ 1.739630529750334, 9.625536619533094 ], [ 1.739647823274421, 9.626385466079523 ], [ 1.737964168420336, 9.628869292160013 ], [ 1.73714751832998, 9.631385974473128 ], [ 1.735928646288092, 9.632556985205483 ], [ 1.737256466033126, 9.640341205464248 ], [ 1.735970862029369, 9.642836780518177 ], [ 1.741276851710853, 9.647934742095597 ], [ 1.743797501828996, 9.654767983503687 ], [ 1.742096554159325, 9.656402251113944 ], [ 1.737980750210729, 9.656318276919276 ], [ 1.737132055878204, 9.658933430043048 ], [ 1.735464168935674, 9.660535958138205 ], [ 1.733814184905584, 9.663052641460634 ], [ 1.728613684580267, 9.663899199506814 ], [ 1.727131649153155, 9.663868986847735 ], [ 1.722415869854743, 9.665781777878259 ], [ 1.721305842999802, 9.668069832860601 ], [ 1.718805842964262, 9.668018766970473 ], [ 1.716130875628364, 9.668073393108887 ], [ 1.712147518439563, 9.672219308440964 ], [ 1.707930192670003, 9.674722766993423 ], [ 1.707989497943356, 9.677627633098762 ], [ 1.707962134152751, 9.678969288100227 ], [ 1.705464168207456, 9.68136929208344 ], [ 1.70298085116993, 9.684719308052566 ], [ 1.699707739887726, 9.686307239125469 ], [ 1.69548085118792, 9.689719308439162 ], [ 1.693173417108598, 9.690838743794224 ], [ 1.691314184423756, 9.695552641827083 ], [ 1.689545894890495, 9.697251554989775 ], [ 1.685486547834519, 9.697168750264373 ], [ 1.682980851104951, 9.697267983476925 ], [ 1.684833879208659, 9.699048328110221 ], [ 1.681528418476571, 9.703924681279005 ], [ 1.677996516908174, 9.703852609347884 ], [ 1.676314185064511, 9.704719308549384 ], [ 1.674630835403262, 9.705535958978571 ], [ 1.673814185033193, 9.706385974649718 ], [ 1.672469783739543, 9.707677631483673 ], [ 1.668797196564741, 9.708869393559983 ], [ 1.668831376089651, 9.710543130421197 ], [ 1.665835669471156, 9.712202624932221 ], [ 1.662073767370533, 9.709652627441338 ], [ 1.660480851653276, 9.706369292240986 ], [ 1.659509884238662, 9.705436369336825 ], [ 1.652139176331322, 9.705586821409568 ], [ 1.649580888544072, 9.705534585631609 ], [ 1.647572526560406, 9.703444284161554 ], [ 1.645956315270741, 9.701891498409159 ], [ 1.639821773269365, 9.700396035502033 ], [ 1.632131445647522, 9.70055294656842 ], [ 1.630480851862756, 9.699702625505022 ], [ 1.626216121356626, 9.698885974857111 ], [ 1.622980851744178, 9.700552641207652 ], [ 1.620422563334178, 9.701793791125962 ], [ 1.617980851752771, 9.700535958404716 ], [ 1.614077958477403, 9.698642495116401 ], [ 1.599442287082654, 9.698941160918691 ], [ 1.596314185037329, 9.700552641909802 ], [ 1.585397283824904, 9.701442686435961 ], [ 1.58548100395331, 9.705544299787483 ], [ 1.585464016150206, 9.706377633176722 ], [ 1.585498042954375, 9.708044300432874 ], [ 1.585441839845871, 9.710797138374 ], [ 1.581297501875625, 9.713869291483604 ], [ 1.580480851834206, 9.718885975113352 ], [ 1.579630530500888, 9.721370258281526 ], [ 1.579673204205956, 9.723460966457159 ], [ 1.579612118100792, 9.726452655773089 ], [ 1.577964168926516, 9.728035958870535 ], [ 1.575889838327149, 9.730194975344057 ], [ 1.577163896072825, 9.733917153438426 ], [ 1.577129461656818, 9.735602639767199 ], [ 1.573010402458733, 9.739560159266587 ], [ 1.571330867727485, 9.744735990747756 ], [ 1.568784023338026, 9.749679838497313 ], [ 1.56964751784353, 9.752202625504184 ], [ 1.570464168601882, 9.755552641912359 ], [ 1.574484706484103, 9.75941550566966 ], [ 1.577964168458075, 9.76555264166611 ], [ 1.57977991360686, 9.768231322228702 ], [ 1.579601589324882, 9.7769686066719 ], [ 1.576248826276793, 9.778035958373254 ], [ 1.573805842959161, 9.775493284419708 ], [ 1.569391424932473, 9.780087859000634 ], [ 1.57048085132797, 9.782202625115305 ], [ 1.571297501858904, 9.790552641503956 ], [ 1.573015183670633, 9.792202930131142 ], [ 1.572926683196635, 9.796540139192722 ], [ 1.571297501486854, 9.799702625257968 ], [ 1.570480851822324, 9.803052641764515 ], [ 1.567130835696842, 9.803869291555795 ], [ 1.55974578514006, 9.8085150338775 ], [ 1.558814184903814, 9.811385974459899 ], [ 1.557964168778663, 9.812202625655669 ], [ 1.557147517995208, 9.817219308186649 ], [ 1.555446621337612, 9.827191333989646 ], [ 1.55548247930015, 9.82894975682726 ], [ 1.552114151949416, 9.832185942652226 ], [ 1.547147518501633, 9.838885975192937 ], [ 1.541543422484954, 9.839979979078414 ], [ 1.538814184513264, 9.841385974613187 ], [ 1.536216121798347, 9.842202625606303 ], [ 1.532980851407115, 9.840535958642615 ], [ 1.531297501650211, 9.839719308416338 ], [ 1.525206752909406, 9.835338865914363 ], [ 1.521059210271102, 9.836758492958744 ], [ 1.518050330003208, 9.842960376428465 ], [ 1.523318935248848, 9.849487120529467 ], [ 1.52604196848466, 9.850808175478207 ], [ 1.527130834879166, 9.85305264176214 ], [ 1.527980851993197, 9.854702625304116 ], [ 1.528797502255006, 9.856385974896543 ], [ 1.531398972615349, 9.857230142260233 ], [ 1.531249030111492, 9.864577706964397 ], [ 1.532495673092098, 9.868219775702036 ], [ 1.541011399285039, 9.87157859161591 ], [ 1.542130835505144, 9.87388597508096 ], [ 1.543292487193028, 9.876140969853555 ], [ 1.545480851163653, 9.877202625020756 ], [ 1.547543331636776, 9.88034847909784 ], [ 1.549647518030348, 9.881369291498181 ], [ 1.550464168620991, 9.883052641361338 ], [ 1.552117814789857, 9.884641437241102 ], [ 1.552964168550058, 9.886385974988604 ], [ 1.555480851445115, 9.888035958527706 ], [ 1.5586910461468, 9.890212014019436 ], [ 1.562947486071852, 9.888019275921936 ], [ 1.568078456770287, 9.886354287841586 ], [ 1.572005916641012, 9.886434446747357 ], [ 1.574678696904348, 9.885519580345253 ], [ 1.582214199439264, 9.885673388979939 ], [ 1.583797501959212, 9.890552641394505 ], [ 1.584699143951284, 9.891418934203067 ], [ 1.58755584378748, 9.891360645217036 ], [ 1.589116359342203, 9.891392485283351 ], [ 1.592996008721614, 9.897309945026056 ], [ 1.592947180389684, 9.899702930548669 ], [ 1.593814185273625, 9.90053595885413 ], [ 1.594630834853737, 9.901385974628116 ], [ 1.598814185023816, 9.904702625503852 ], [ 1.599630835149384, 9.905552641056364 ], [ 1.601330867564701, 9.907185942165365 ], [ 1.602964168853346, 9.908885974438709 ], [ 1.606217444098063, 9.909941679913002 ], [ 1.607297970246603, 9.916579201688775 ], [ 1.608814184512916, 9.918035958390648 ], [ 1.610047654261246, 9.920578479720229 ], [ 1.612146856908986, 9.920535653635637 ], [ 1.613797501477498, 9.921385974836539 ], [ 1.615480851660339, 9.922202625509941 ], [ 1.617130835556558, 9.926385974734686 ], [ 1.618080847477054, 9.928230101555712 ], [ 1.62048085174025, 9.930535958785535 ], [ 1.621328629644864, 9.934013436469877 ], [ 1.62129719647437, 9.935551420501 ], [ 1.622649735539461, 9.940829130750174 ], [ 1.625965165333949, 9.942437610277397 ], [ 1.627256466302178, 9.947734444494063 ], [ 1.626292416068802, 9.950550962740273 ], [ 1.628814184453309, 9.951369292297171 ], [ 1.629630834966826, 9.952219308513433 ], [ 1.633822017288327, 9.953037484848043 ], [ 1.632961320153393, 9.954708168958184 ], [ 1.633836360878022, 9.95812267974998 ], [ 1.636310624596032, 9.960499897060334 ], [ 1.637174882054655, 9.96933638894188 ], [ 1.639647823439996, 9.970536136153285 ], [ 1.639565120642793, 9.974591642928623 ], [ 1.640480851817982, 9.976369292120456 ], [ 1.64129750173186, 9.990552641371682 ], [ 1.642459204115786, 9.99280763659196 ], [ 1.644647517876295, 9.993869292190706 ], [ 1.646329850488706, 9.994735991398278 ], [ 1.648404841988438, 9.994693647790017 ], [ 1.652130835650803, 9.997219308011026 ], [ 1.656314185270863, 9.998869292304811 ], [ 1.658093562982417, 9.999785963546524 ], [ 1.662067053811911, 10.003921629405665 ], [ 1.665072221133801, 10.003860289408122 ], [ 1.666297502291026, 10.006385975202505 ], [ 1.66718149472804, 10.008101978213496 ], [ 1.670480851563387, 10.009702624811524 ], [ 1.671297501842841, 10.014719308446363 ], [ 1.672292985452313, 10.01762763296794 ], [ 1.671166683555492, 10.020918191538005 ], [ 1.673814184867617, 10.02220262482723 ], [ 1.674661657597425, 10.023084710828421 ], [ 1.679647518228391, 10.024702625544323 ], [ 1.682824703695549, 10.030054848574766 ], [ 1.683797502017955, 10.033052641201941 ], [ 1.685480851664191, 10.035535958421848 ], [ 1.686297501652245, 10.037219307921518 ], [ 1.689647517810399, 10.039702625308175 ], [ 1.691273189687459, 10.043053480840575 ], [ 1.693389176734588, 10.043010297946307 ], [ 1.695480444920601, 10.04305297236116 ], [ 1.698819779358675, 10.040519072351909 ], [ 1.705334265029078, 10.040652027338028 ], [ 1.707964677423121, 10.038868961454778 ], [ 1.708813574325145, 10.038886305626132 ], [ 1.710464168994263, 10.038035958370806 ], [ 1.713862911652849, 10.037219308100934 ], [ 1.715480546338068, 10.038902988113151 ], [ 1.71713917666137, 10.03886913912722 ], [ 1.71797251019038, 10.03888612749817 ], [ 1.719615169898226, 10.038852608520884 ], [ 1.724365942867955, 10.041299991164966 ], [ 1.727147518074589, 10.04220262511212 ], [ 1.729819332258808, 10.043117160724748 ], [ 1.735488887765525, 10.043001448309351 ], [ 1.737336828730224, 10.046810627348137 ], [ 1.741776017620655, 10.049702625158655 ], [ 1.746291906922449, 10.046641534456841 ], [ 1.749647518252188, 10.045552641129452 ], [ 1.752190242569271, 10.044682305294428 ], [ 1.754028926991268, 10.040892302519394 ], [ 1.761496679852433, 10.039719308404392 ], [ 1.764214270588764, 10.046609160032478 ], [ 1.766297502294227, 10.045535958604116 ], [ 1.7696029625596, 10.043932336129156 ], [ 1.770472509994258, 10.043027286478345 ], [ 1.771297502303982, 10.043885975043237 ], [ 1.773961076220917, 10.044750309029176 ], [ 1.777856644904807, 10.044670810762115 ], [ 1.781935522990519, 10.045716164580465 ], [ 1.783011877712122, 10.049032891292217 ], [ 1.782938534077477, 10.052627632966674 ], [ 1.782986242606852, 10.054969297952859 ], [ 1.792147517963761, 10.057202625611238 ], [ 1.793797501838991, 10.059719308306827 ], [ 1.796072180353788, 10.061904747976431 ], [ 1.794630529885396, 10.064703260567049 ], [ 1.794656165206279, 10.065960966465074 ], [ 1.794613847054839, 10.068036289415003 ], [ 1.795480851151553, 10.068869291744202 ], [ 1.796297501565809, 10.07138597506931 ], [ 1.797247513962959, 10.073230075706672 ], [ 1.800515234697355, 10.076369622363925 ], [ 1.80036335845005, 10.083811206851598 ], [ 1.803814184638013, 10.086369291724443 ], [ 1.804814957614013, 10.08741090749664 ], [ 1.812144262627869, 10.08553255120551 ], [ 1.81296416845302, 10.0863859748286 ], [ 1.818814185298166, 10.0872026249396 ], [ 1.820564775000415, 10.088104470255663 ], [ 1.820400794209178, 10.096141528641844 ], [ 1.817125748713646, 10.097204303988493 ], [ 1.817981156297029, 10.099703565964889 ], [ 1.81794779090269, 10.101338138820038 ], [ 1.819342444192545, 10.105412718436012 ], [ 1.821314185037262, 10.106369292054483 ], [ 1.823675126077662, 10.10882656695272 ], [ 1.826060176767343, 10.109983692379993 ], [ 1.827916662467296, 10.108051370098066 ], [ 1.832997534674814, 10.106402632703652 ], [ 1.835402929793359, 10.103898995327311 ], [ 1.838449398315645, 10.102421004057536 ], [ 1.839752804226866, 10.095744749840309 ], [ 1.845480851295863, 10.093885974803175 ], [ 1.847988786041129, 10.092593962340496 ], [ 1.84796396497922, 10.091377633060056 ], [ 1.847982173657263, 10.090484969073804 ], [ 1.851305843729689, 10.090552793725241 ], [ 1.852197465070697, 10.090534610667916 ], [ 1.853813879942583, 10.088852278657733 ], [ 1.856308590166582, 10.088903191762443 ], [ 1.857130835346977, 10.086369291483317 ], [ 1.860480851535455, 10.08221930843871 ], [ 1.863797501934149, 10.078035958447257 ], [ 1.865498043345336, 10.077210966889641 ], [ 1.865447180278501, 10.074718977754435 ], [ 1.867117814391023, 10.073113854324431 ], [ 1.867964168436502, 10.071369291755875 ], [ 1.869848629446598, 10.070455036138377 ], [ 1.876948848435586, 10.070599943381064 ], [ 1.877964168761221, 10.083052641266779 ], [ 1.878847856045514, 10.083901666120861 ], [ 1.878733008327319, 10.089530811002053 ], [ 1.879695939478048, 10.092344252160812 ], [ 1.879630530391811, 10.095552158731151 ], [ 1.881314185120602, 10.098035958424786 ], [ 1.882365820875253, 10.100203622315105 ], [ 1.887198584317148, 10.101381753394815 ], [ 1.887114152687523, 10.105520241913377 ], [ 1.888020218800258, 10.107279021186791 ], [ 1.889630835099108, 10.113885974880331 ], [ 1.894111731461168, 10.114978326183625 ], [ 1.895528560703822, 10.116453011824543 ], [ 1.900055843265958, 10.116360619769466 ], [ 1.901305843428891, 10.116386127723402 ], [ 1.904222510015295, 10.116326618465326 ], [ 1.910630794894433, 10.116457386217654 ], [ 1.913736263772152, 10.119689604305904 ], [ 1.917131852588966, 10.121336917779201 ], [ 1.917964168436636, 10.123052641579303 ], [ 1.918814185184923, 10.123869291679826 ], [ 1.920402930336086, 10.125522937741607 ], [ 1.922147517827275, 10.126369292312708 ], [ 1.925554602188619, 10.128954614094871 ], [ 1.92891438459964, 10.130584608816143 ], [ 1.932555842993591, 10.130510298357935 ], [ 1.935930884172361, 10.130579166784042 ], [ 1.937407833392733, 10.133623675974221 ], [ 1.939696244354441, 10.134702625091332 ], [ 1.941297501579474, 10.133035958288479 ], [ 1.944025163059516, 10.131712665393309 ], [ 1.945464168861372, 10.140552641607444 ], [ 1.947147518569116, 10.141369291505907 ], [ 1.948288265159644, 10.143720721888609 ], [ 1.952572526159997, 10.145110975758135 ], [ 1.954663183510225, 10.147287006261557 ], [ 1.958805843573135, 10.147202472347717 ], [ 1.959639176730118, 10.147219460913949 ], [ 1.961871638861643, 10.147173913614957 ], [ 1.96807128508757, 10.144659188592092 ], [ 1.96963083518952, 10.143035958470083 ], [ 1.970529577566234, 10.142219308397591 ], [ 1.972539160898973, 10.144310957709967 ], [ 1.97395253140999, 10.145668862736054 ], [ 1.980512589534785, 10.145534966880476 ], [ 1.983733720534415, 10.148887602052204 ], [ 1.985200598333546, 10.148857669995387 ], [ 1.990766190819441, 10.153080819302948 ], [ 1.993030798390217, 10.153034610606623 ], [ 1.994630835444098, 10.151369291694815 ], [ 1.996436560472679, 10.150493233894949 ], [ 1.998797806699, 10.14803562793567 ], [ 2.000496516968629, 10.148070291248537 ], [ 2.002130834905266, 10.146369292335216 ], [ 2.005480851442552, 10.145552641929736 ], [ 2.007130835273544, 10.144702625364923 ], [ 2.011314185327461, 10.143885974617122 ], [ 2.012731522654059, 10.142410729648601 ], [ 2.019375301278986, 10.141113732807312 ], [ 2.020464168449126, 10.138869291771519 ], [ 2.021444596281416, 10.13721930814217 ], [ 2.02688791569805, 10.14002346653686 ], [ 2.029205826989666, 10.13761097579475 ], [ 2.030532528330042, 10.136336332659374 ], [ 2.035923458321993, 10.136446348355955 ], [ 2.043063452835055, 10.130452619898341 ], [ 2.048012589370553, 10.130553632885732 ], [ 2.051214697447279, 10.127220808438112 ], [ 2.061956783072692, 10.124862791273197 ], [ 2.062964168961708, 10.119702625645205 ], [ 2.066314185318954, 10.118885975130732 ], [ 2.067964778955822, 10.118035627811791 ], [ 2.069222509613225, 10.118061313660908 ], [ 2.071764217362108, 10.118009433337651 ], [ 2.072964372091235, 10.115535628278213 ], [ 2.077114660965366, 10.115620339526355 ], [ 2.078372494220276, 10.113027642436244 ], [ 2.079647518296814, 10.110552641239495 ], [ 2.080464168896941, 10.106369291674739 ], [ 2.081314184426457, 10.104719308209477 ], [ 2.08213083491865, 10.10303595888643 ], [ 2.083062943993942, 10.101226545967545 ], [ 2.082942094650755, 10.095303007950159 ], [ 2.081265662020327, 10.0887618196055 ], [ 2.081314490497006, 10.086370537634849 ], [ 2.080432328884409, 10.082928486095339 ], [ 2.080512081189288, 10.079022642905135 ], [ 2.085794776100064, 10.077991352026869 ], [ 2.09047251015103, 10.078086820915358 ], [ 2.093781836247855, 10.078019275451046 ], [ 2.09580789842194, 10.079063053032314 ], [ 2.102579952597776, 10.083653507276219 ], [ 2.105888362643732, 10.088699690186077 ], [ 2.111751298761507, 10.091369291900598 ], [ 2.113005163712665, 10.088784758593764 ], [ 2.118773494863761, 10.088902479709825 ], [ 2.123004859136037, 10.087186120179403 ], [ 2.127572221591541, 10.087279325977875 ], [ 2.129630834843148, 10.083035958138572 ], [ 2.130549821413551, 10.08215300877486 ], [ 2.136722510447444, 10.082278995671171 ], [ 2.140472510370639, 10.082202472691284 ], [ 2.141305843043099, 10.082219461179569 ], [ 2.143749996098489, 10.082169589864117 ], [ 2.145464778509633, 10.08305297238952 ], [ 2.146399634139029, 10.083033872910081 ], [ 2.149695024332979, 10.081336256816634 ], [ 2.152948503175797, 10.081402658043507 ], [ 2.154631445347758, 10.080535628266372 ], [ 2.155889176608157, 10.080561313792058 ], [ 2.158100684102663, 10.08051617291866 ], [ 2.161361690116998, 10.078836256517729 ], [ 2.163805843195669, 10.078886127592785 ], [ 2.164647314749395, 10.07886896103331 ], [ 2.165464169044855, 10.080552641432574 ], [ 2.166808569993194, 10.081844298296085 ], [ 2.170623267092724, 10.083082193102799 ], [ 2.173797501582445, 10.086385974574322 ], [ 2.175072526159774, 10.087610975440223 ], [ 2.176297501902849, 10.088885975131753 ], [ 2.177980851099145, 10.089702625303525 ], [ 2.178797501645453, 10.090552641525447 ], [ 2.1829808511292, 10.091369292172686 ], [ 2.185055843249772, 10.092438246521192 ], [ 2.189039709797712, 10.090385964624478 ], [ 2.191322221046451, 10.088010298778686 ], [ 2.193736263690034, 10.090522937986966 ], [ 2.195480851190358, 10.091369292160005 ], [ 2.199332475190053, 10.094291858463416 ], [ 2.206149898959442, 10.092895501204582 ], [ 2.209639176777143, 10.090530312528443 ], [ 2.212667232761102, 10.09258289926308 ], [ 2.21379831586751, 10.097222563200111 ], [ 2.218674414563306, 10.096223824841376 ], [ 2.220513098091549, 10.098137582102234 ], [ 2.22044748551542, 10.10135357512147 ], [ 2.221314185237394, 10.103035958467347 ], [ 2.222454932033042, 10.105387388953293 ], [ 2.225480851106014, 10.10636929148075 ], [ 2.227918392600635, 10.10762498835058 ], [ 2.229677629258181, 10.119193642997432 ], [ 2.236198421130616, 10.12130965536846 ], [ 2.238014318759427, 10.122245146222264 ], [ 2.237887468057018, 10.128460966555227 ], [ 2.237981055368131, 10.133044299706206 ], [ 2.23794738437124, 10.134691613195011 ], [ 2.240654903353563, 10.139156335437606 ], [ 2.246399532276862, 10.140556761447415 ], [ 2.249233293333019, 10.143506234183615 ], [ 2.247963863151449, 10.149704151468036 ], [ 2.24798105479578, 10.150544299804809 ], [ 2.247951452532391, 10.151993147504044 ], [ 2.243877763589702, 10.157361774356589 ], [ 2.246314185076351, 10.159702625071954 ], [ 2.247147315028663, 10.161419976772951 ], [ 2.252853186317544, 10.16130352670398 ], [ 2.255756832528843, 10.16279937103336 ], [ 2.257175390740195, 10.161322930223212 ], [ 2.260480851614123, 10.159719308242867 ], [ 2.262964168483749, 10.158035958232654 ], [ 2.265627742865237, 10.157171624860975 ], [ 2.268805843547321, 10.157236474251501 ], [ 2.274780879932881, 10.15711453115552 ], [ 2.276297501526784, 10.155535958847706 ], [ 2.277147518212341, 10.154719308031103 ], [ 2.277964168245556, 10.15386929186794 ], [ 2.282269690409135, 10.152171115717083 ], [ 2.284639177124402, 10.152219460788071 ], [ 2.285472510042866, 10.152202472912068 ], [ 2.287099707274935, 10.152235660374901 ], [ 2.289725541825194, 10.151336866547238 ], [ 2.292147212608563, 10.15138630553712 ], [ 2.295384415773447, 10.148016986851797 ], [ 2.297147314870687, 10.148052972078961 ], [ 2.29850860214673, 10.145247084078498 ], [ 2.302852372797586, 10.143139692506113 ], [ 2.305464168850178, 10.141369291896146 ], [ 2.308113297642458, 10.140509662636726 ], [ 2.311297502018905, 10.138869291688124 ], [ 2.31381418495686, 10.138052641147034 ], [ 2.315594071739636, 10.137135741320467 ], [ 2.325475663237765, 10.138053709872096 ], [ 2.329712215673573, 10.137185967320509 ], [ 2.331297501731111, 10.135535958737959 ], [ 2.334490555752555, 10.134499810723723 ], [ 2.340368343334113, 10.135703703816421 ], [ 2.342130834892268, 10.133869292098028 ], [ 2.34464751804836, 10.133052641074583 ], [ 2.345464168574174, 10.132202625506178 ], [ 2.349769690481177, 10.130504448788869 ], [ 2.3521469081227, 10.13055297188207 ], [ 2.353830358837194, 10.129685713546175 ], [ 2.357260229762526, 10.131452630369445 ], [ 2.358910009864676, 10.13316972731641 ], [ 2.367711889698703, 10.13299010626228 ], [ 2.372997738035347, 10.133891696940651 ], [ 2.372963863761881, 10.135552513929765 ], [ 2.375575761531286, 10.136400114782864 ], [ 2.378372494028346, 10.139310957425902 ], [ 2.379693905052775, 10.140580514135985 ], [ 2.381430863603134, 10.144160785753156 ], [ 2.382964270019514, 10.148886305527235 ], [ 2.384641923102553, 10.148852074905722 ], [ 2.385464168658076, 10.151385974879418 ], [ 2.391798701955312, 10.152270272249002 ], [ 2.398015336785686, 10.151361814844753 ], [ 2.401547542836889, 10.153181425526911 ], [ 2.403797502288169, 10.158885975272971 ], [ 2.404647518505985, 10.160535958235581 ], [ 2.405464168498208, 10.165552628395526 ], [ 2.406355892611441, 10.169906063350352 ], [ 2.410515133260445, 10.173902276169901 ], [ 2.412139176387153, 10.173869126805524 ], [ 2.413097530406818, 10.173888683687773 ], [ 2.417110388721627, 10.178065344124589 ], [ 2.419725541648811, 10.177170213438867 ], [ 2.425416459026146, 10.177286358139645 ], [ 2.426297501723842, 10.176369304941534 ], [ 2.427973019098398, 10.174759528013871 ], [ 2.429221594478118, 10.16836385726036 ], [ 2.432572526056528, 10.165144303209686 ], [ 2.433797501494291, 10.163869304881358 ], [ 2.437333574106962, 10.163007259120384 ], [ 2.44378275146479, 10.159684975569734 ], [ 2.445479020825414, 10.15971961370564 ], [ 2.450542394997122, 10.158855966225078 ], [ 2.453675126510069, 10.155595365752234 ], [ 2.455926713100462, 10.154503014725792 ], [ 2.457996517023718, 10.155569324886004 ], [ 2.459697465271812, 10.155534611060467 ], [ 2.461297501966962, 10.15386929166981 ], [ 2.465645646316687, 10.1504219496098 ], [ 2.475426326426222, 10.152090218653482 ], [ 2.476297502050971, 10.153885974785975 ], [ 2.481314591643759, 10.15470267612193 ], [ 2.481297298319819, 10.155544300034368 ], [ 2.481314795291802, 10.156402962914202 ], [ 2.483490291579581, 10.156358560224229 ], [ 2.488797502268321, 10.163052628925815 ], [ 2.490480851450193, 10.163869304917476 ], [ 2.491621598502378, 10.166220721773428 ], [ 2.494647518602668, 10.167202637887161 ], [ 2.496297501724925, 10.168052628659641 ], [ 2.498823136582943, 10.16927796080607 ], [ 2.498780615128699, 10.171361128123062 ], [ 2.500480851098665, 10.17386930432505 ], [ 2.501297502284172, 10.175552629223343 ], [ 2.503042090241892, 10.176398995455113 ], [ 2.505039160296489, 10.17847763680388 ], [ 2.506383154547594, 10.179768911669926 ], [ 2.511281226023482, 10.179668953760583 ], [ 2.51634531296535, 10.181402339976684 ], [ 2.518805842947861, 10.181352125366056 ], [ 2.521955867578483, 10.181416402991463 ], [ 2.523147884237305, 10.186306604014284 ], [ 2.530480851491626, 10.187202638311739 ], [ 2.532622574879923, 10.189431717948406 ], [ 2.534125870732121, 10.194064515535109 ], [ 2.537130834945357, 10.193035971708301 ], [ 2.54048085182283, 10.19221929541853 ], [ 2.542042537585777, 10.19059386556844 ], [ 2.544647518374779, 10.188885961901084 ], [ 2.547008357822776, 10.186428699433023 ], [ 2.548831275019671, 10.185544300100338 ], [ 2.548768815483914, 10.182482343999119 ], [ 2.552294409302753, 10.181338291374628 ], [ 2.556012060775649, 10.181414152840155 ], [ 2.560464168606833, 10.178035971675216 ], [ 2.562980851396914, 10.176385961825282 ], [ 2.564516293030973, 10.17322100928306 ], [ 2.569647518635756, 10.172219295856078 ], [ 2.572130835508089, 10.171369304453668 ], [ 2.577116593402557, 10.169751377379987 ], [ 2.578569230567159, 10.168239650832023 ], [ 2.588062231456461, 10.1672192953136 ], [ 2.591297502225494, 10.168885961837542 ], [ 2.600480851740043, 10.169702637690895 ], [ 2.601330460997217, 10.170586948532891 ], [ 2.601297298645771, 10.172217260646354 ], [ 2.60214772205947, 10.178038005972899 ], [ 2.602061865890064, 10.182248605283837 ], [ 2.604960018338937, 10.181256630915385 ], [ 2.611564225154686, 10.181391404061772 ], [ 2.618754777545094, 10.188875560520199 ], [ 2.622147518354256, 10.189702637563528 ], [ 2.62296416839305, 10.191385962188765 ], [ 2.623814185217581, 10.192202637513025 ], [ 2.628434138867779, 10.197011076969623 ], [ 2.631297501570318, 10.195535971168953 ], [ 2.634655045636087, 10.194717438997451 ], [ 2.633797501660918, 10.19305262837759 ], [ 2.63298085142854, 10.186369304751166 ], [ 2.63213083551284, 10.18388596234108 ], [ 2.630512997103906, 10.178900114939717 ], [ 2.629630834948377, 10.178052628397726 ], [ 2.627949520242887, 10.174587065510242 ], [ 2.628022762298751, 10.170993989436349 ], [ 2.625464168877077, 10.16721929567162 ], [ 2.624647517876211, 10.164702638223725 ], [ 2.622964168455737, 10.160552641249071 ], [ 2.622147518498875, 10.158035958832375 ], [ 2.619010107880663, 10.153407560650679 ], [ 2.620483699530325, 10.150547097462654 ], [ 2.619456071386614, 10.146537240734991 ], [ 2.620585017835642, 10.145452645514268 ], [ 2.623814184694202, 10.143885974399936 ], [ 2.625447485921935, 10.142185967699861 ], [ 2.630436296207479, 10.139765669238033 ], [ 2.632841284165901, 10.137262464690428 ], [ 2.633797501501139, 10.131255258181193 ], [ 2.631352840505944, 10.124113076203598 ], [ 2.630227352155996, 10.119495970399392 ], [ 2.632163794629721, 10.113838138851175 ], [ 2.632130428144322, 10.11220326084514 ], [ 2.632997738009295, 10.110519783811727 ], [ 2.631297502206017, 10.107219308117495 ], [ 2.630442196160836, 10.099346307067158 ], [ 2.625243425222228, 10.090773461516326 ], [ 2.623663631517962, 10.085905577054742 ], [ 2.617104996726459, 10.0843066854213 ], [ 2.617228084563255, 10.078271350517102 ], [ 2.616281225562632, 10.0755048047609 ], [ 2.616323339737408, 10.073435967613516 ], [ 2.621314185017276, 10.072219308063103 ], [ 2.626032609243722, 10.069788608180925 ], [ 2.628911840776376, 10.068854287745467 ], [ 2.63088917709256, 10.068894647182857 ], [ 2.634836116792945, 10.068814080090997 ], [ 2.637975358567809, 10.067196878025872 ], [ 2.638829850443463, 10.068086338181573 ], [ 2.643505753945022, 10.067990894433457 ], [ 2.650942276991066, 10.069077599941336 ], [ 2.65297251009236, 10.06803168577791 ], [ 2.654630834959754, 10.068885975059471 ], [ 2.656414486190925, 10.069751275046029 ], [ 2.658899633936563, 10.069700539540488 ], [ 2.662130835716279, 10.068035958771031 ], [ 2.667980851315527, 10.067219307846097 ], [ 2.670464168603653, 10.066369291989336 ], [ 2.676314184938948, 10.064719308076096 ], [ 2.677539160132048, 10.063444309123513 ], [ 2.679169002485722, 10.061878325256222 ], [ 2.682135514713172, 10.063889077651519 ], [ 2.685526831179098, 10.063019910977445 ], [ 2.687146297245777, 10.063052947027774 ], [ 2.692452286685156, 10.061693109108907 ], [ 2.695243424618591, 10.055940138172119 ], [ 2.699647518504999, 10.053052641208343 ], [ 2.700949805429214, 10.051697228552454 ], [ 2.707980851711249, 10.050552641909194 ], [ 2.711944270901002, 10.049196033766357 ], [ 2.713797501923435, 10.046369291925938 ], [ 2.714647518383564, 10.045552641512563 ], [ 2.717143449495123, 10.042185535830184 ], [ 2.718845923378428, 10.042220300139427 ], [ 2.721280819413165, 10.039685967408953 ], [ 2.726314185152094, 10.038052641244576 ], [ 2.727130835251487, 10.037202625085834 ], [ 2.728914485753505, 10.036337324630557 ], [ 2.732119849148511, 10.03640275965223 ], [ 2.736297501588956, 10.033869292146253 ], [ 2.740480851795267, 10.033052641764192 ], [ 2.742130835010145, 10.032202625546686 ], [ 2.743814184705114, 10.031385974504307 ], [ 2.745464168427614, 10.030535958399351 ], [ 2.748559464773823, 10.029531497623498 ], [ 2.750948177220371, 10.023475385951347 ], [ 2.759801326547993, 10.020185871333513 ], [ 2.762555842985277, 10.02160491313067 ], [ 2.764726660694102, 10.020486570712411 ], [ 2.768064266054574, 10.020554675625094 ], [ 2.770467424224797, 10.023056049282225 ], [ 2.773860164505778, 10.022186577718777 ], [ 2.777932430699845, 10.022269662074123 ], [ 2.779205826822589, 10.020944308831741 ], [ 2.780905859995275, 10.019310957413946 ], [ 2.782947485878226, 10.017185967317381 ], [ 2.786481624870158, 10.015471362655086 ], [ 2.793883968475261, 10.015622425459917 ], [ 2.793796281391623, 10.011322778444619 ], [ 2.79548085133975, 10.008052641322799 ], [ 2.796841935403471, 10.005247083933535 ], [ 2.799647518012919, 10.003885975169972 ], [ 2.803042497205119, 10.001309859124753 ], [ 2.804911800674502, 9.997456658311879 ], [ 2.803763728843597, 9.996353600634931 ], [ 2.803814591373196, 9.993869927549905 ], [ 2.80212961441732, 9.990599154976303 ], [ 2.802157487322124, 9.98922589006516 ], [ 2.805338436015658, 9.984533227203849 ], [ 2.803797501475753, 9.983052641853222 ], [ 2.802980851135533, 9.979702624779742 ], [ 2.802130428216539, 9.977218367188637 ], [ 2.802147721524317, 9.976377633563525 ], [ 2.802093399915981, 9.973715127566647 ], [ 2.799629614836889, 9.96893248863319 ], [ 2.799680476874056, 9.966433454985239 ], [ 2.797962947836655, 9.963099155368774 ], [ 2.797981258671391, 9.962203261203529 ], [ 2.797064103119794, 9.960423221613915 ], [ 2.792585343869791, 9.956120090710058 ], [ 2.791036475332971, 9.951347141324927 ], [ 2.795594377106871, 9.947968463443484 ], [ 2.798312272635962, 9.945139535148797 ], [ 2.795464168584496, 9.9413859749026 ], [ 2.794647518216495, 9.939702624858102 ], [ 2.792130835128838, 9.938885975047313 ], [ 2.791146337864259, 9.934847786820276 ], [ 2.792147518314501, 9.933885975021832 ], [ 2.792964168421256, 9.928869292104098 ], [ 2.793814591402857, 9.926385008547181 ], [ 2.793771867533309, 9.92429333387561 ], [ 2.788797501728918, 9.916385974660544 ], [ 2.787934871371248, 9.91196758893731 ], [ 2.787981258109339, 9.909702929986699 ], [ 2.787130835246107, 9.908885975289101 ], [ 2.785542090286147, 9.907232329001003 ], [ 2.78379750156015, 9.906385975191874 ], [ 2.7821939051586, 9.903080514055164 ], [ 2.781297502117569, 9.902219307984407 ], [ 2.779234920856427, 9.899073454472207 ], [ 2.777130835635357, 9.898052641312406 ], [ 2.776282853837411, 9.896304543343167 ], [ 2.771297501688081, 9.893885975179797 ], [ 2.770448503312197, 9.893002287390027 ], [ 2.764391984351657, 9.893125883272122 ], [ 2.762147517841477, 9.889702625478957 ], [ 2.759630834990437, 9.886385975010839 ], [ 2.758814185169186, 9.883869291699563 ], [ 2.757963761745236, 9.882218646758291 ], [ 2.758049821604204, 9.87800422010169 ], [ 2.753520605881645, 9.873652617214169 ], [ 2.747008357786272, 9.870493233523133 ], [ 2.744531348321632, 9.867915006982164 ], [ 2.744647721851763, 9.862210966674015 ], [ 2.744622086720142, 9.860960966841944 ], [ 2.744647721587663, 9.859710966834211 ], [ 2.744630631763423, 9.858877633804624 ], [ 2.744681697923166, 9.856377633218086 ], [ 2.744621476095134, 9.853427651357537 ], [ 2.742130835029192, 9.852219307948342 ], [ 2.739565934714885, 9.849549681673714 ], [ 2.739698787824889, 9.843044299909764 ], [ 2.739627783779514, 9.839566160759949 ], [ 2.73703094148955, 9.834525165690154 ], [ 2.733355810511366, 9.830994281454714 ], [ 2.730839127607146, 9.828374907407969 ], [ 2.729647314412927, 9.824702319702869 ], [ 2.727555843643835, 9.824744994092381 ], [ 2.724589128350911, 9.824684416346624 ], [ 2.722572526751055, 9.820527616995511 ], [ 2.721297501530247, 9.818052641532793 ], [ 2.720433244262115, 9.815389016045785 ], [ 2.720497941427998, 9.812210966758073 ], [ 2.720455420585816, 9.810127633513263 ], [ 2.720481055074367, 9.808877632923961 ], [ 2.72044707883008, 9.807210966426425 ], [ 2.720481054661279, 9.805544299698836 ], [ 2.720463965264779, 9.804704405291476 ], [ 2.72224110516794, 9.79428519598812 ], [ 2.720464168158798, 9.786385974716776 ], [ 2.719647518363216, 9.78136929215194 ], [ 2.713617448198673, 9.776232624429991 ], [ 2.711739193030042, 9.774277617171014 ], [ 2.708194881538033, 9.77087236392239 ], [ 2.709653214836, 9.768041502845353 ], [ 2.70837249355731, 9.766810982771581 ], [ 2.706375423885308, 9.764732328902582 ], [ 2.704127294973699, 9.763641681783255 ], [ 2.70573862320281, 9.751036243454946 ], [ 2.704630835634602, 9.74888597448988 ], [ 2.703597917015586, 9.746756813891466 ], [ 2.704647518125409, 9.744719308180477 ], [ 2.705464168271964, 9.739702624951351 ], [ 2.707003068398228, 9.735206622647707 ], [ 2.705397436512825, 9.732089913738067 ], [ 2.702180273665579, 9.728998890140469 ], [ 2.701314184580345, 9.727023232512446 ], [ 2.70425607914231, 9.71842795681763 ], [ 2.708264664761133, 9.717127195983563 ], [ 2.713050431624216, 9.710671202056909 ], [ 2.71118092465343, 9.70704184801847 ], [ 2.709630835638929, 9.705552641125449 ], [ 2.707147518521634, 9.702202625551408 ], [ 2.704630835666184, 9.700552641556056 ], [ 2.703806250190685, 9.696329059776303 ], [ 2.700570573289231, 9.69322028509932 ], [ 2.698814184996801, 9.690454578258421 ], [ 2.700480851792353, 9.687219307748718 ], [ 2.701549170629028, 9.685017058177845 ], [ 2.700235083270067, 9.678600431816154 ], [ 2.697141414802122, 9.675628121790231 ], [ 2.695768326846169, 9.665792713386544 ], [ 2.697980851167894, 9.664719308164589 ], [ 2.698827205814981, 9.662974770405723 ], [ 2.700480851358504, 9.661385975224837 ], [ 2.701297502124825, 9.66053595825465 ], [ 2.702572525921504, 9.659310983103124 ], [ 2.703797502001899, 9.658035958308794 ], [ 2.70554209028182, 9.65718960410647 ], [ 2.707130834985592, 9.655535958610646 ], [ 2.708814591612188, 9.65471915565352 ], [ 2.708780412020979, 9.653044300338845 ], [ 2.708814388709253, 9.65137763363988 ], [ 2.708797298499155, 9.650544300357684 ], [ 2.708814388650526, 9.649710966989943 ], [ 2.70878102256232, 9.648076699763958 ], [ 2.710562028028676, 9.643685576047172 ], [ 2.710462540795124, 9.638805509932796 ], [ 2.712980851891399, 9.636385974541428 ], [ 2.71454986230762, 9.634752927920209 ], [ 2.72131459195866, 9.63055243779251 ], [ 2.721280819265127, 9.628901691331951 ], [ 2.722153214526454, 9.627208169431249 ], [ 2.720447485712391, 9.625569324380042 ], [ 2.717898657777817, 9.622916329984589 ], [ 2.717997941160543, 9.618052336437779 ], [ 2.71567697805745, 9.615822518226921 ], [ 2.714647518258226, 9.610487283212436 ], [ 2.71631418468427, 9.608885974858316 ], [ 2.718622941811203, 9.606483071425567 ], [ 2.715804744578304, 9.602325763404826 ], [ 2.717213232507393, 9.599591643420878 ], [ 2.717105200316503, 9.5942942999626 ], [ 2.717156877364425, 9.591760985318247 ], [ 2.723375748747852, 9.588743864663961 ], [ 2.722130427957612, 9.583884753911525 ], [ 2.722148738859367, 9.582989470443049 ], [ 2.720464168192572, 9.579719307895678 ], [ 2.719647517829138, 9.57636929222415 ], [ 2.718797501541936, 9.574719308574529 ], [ 2.717207128938449, 9.569818439844978 ], [ 2.716297502113227, 9.568052641311455 ], [ 2.715385229477056, 9.565241108325523 ], [ 2.715530899924782, 9.558101876089562 ], [ 2.712964168159064, 9.554719308028762 ], [ 2.711596167464724, 9.549107532464456 ], [ 2.70703602734988, 9.544726225306507 ], [ 2.703814185112546, 9.546385974516649 ], [ 2.700464168259937, 9.547202624919786 ], [ 2.698622941765444, 9.548151111807327 ], [ 2.692450862965377, 9.548025175723605 ], [ 2.691106054960688, 9.541136696675684 ], [ 2.689630835026593, 9.539719308208532 ], [ 2.688814185027212, 9.53886929197586 ], [ 2.685350643055757, 9.536301797324983 ], [ 2.683814185180695, 9.534702624804634 ], [ 2.682114152146079, 9.53306932479639 ], [ 2.68048085171129, 9.529702625324843 ], [ 2.679596248256652, 9.527985655076339 ], [ 2.674674983599675, 9.528086108904144 ], [ 2.671292009217182, 9.525519072289253 ], [ 2.668829850947801, 9.525569324367307 ], [ 2.665573828076977, 9.523891976744695 ], [ 2.659911800580694, 9.522511666726906 ], [ 2.658781836420912, 9.521335621232923 ], [ 2.656298722874012, 9.521386279965119 ], [ 2.652856747029642, 9.5205041185783 ], [ 2.649614762832434, 9.520570341387231 ], [ 2.647656754712548, 9.516534493722066 ], [ 2.644630835179401, 9.515552641789229 ], [ 2.642851456995929, 9.514635995383591 ], [ 2.640347591606711, 9.512029794321851 ], [ 2.638814184831398, 9.508869292027835 ], [ 2.637930192666539, 9.507153288210633 ], [ 2.633508602360454, 9.505008208335747 ], [ 2.631645402499866, 9.501167773878452 ], [ 2.625389908836976, 9.502234770463476 ], [ 2.622972509821692, 9.502185433511986 ], [ 2.616099544675147, 9.502325712497598 ], [ 2.614410295281721, 9.495396086136358 ], [ 2.611263525662928, 9.49386949561077 ], [ 2.611315202311273, 9.49133755357804 ], [ 2.609630835159796, 9.489719307848858 ], [ 2.607980851116637, 9.487202625200645 ], [ 2.60629750177114, 9.484719307863886 ], [ 2.605415951009187, 9.482902088090551 ], [ 2.605527644955936, 9.477430692901526 ], [ 2.603764542693677, 9.468822600404433 ], [ 2.60386036852909, 9.464119333036798 ], [ 2.607656754480711, 9.462887439255734 ], [ 2.609001766113394, 9.460115120713013 ], [ 2.613097428419073, 9.457429777651592 ], [ 2.616314184916367, 9.456385974912338 ], [ 2.617176204641602, 9.452849903227186 ], [ 2.619647518408661, 9.448052641635195 ], [ 2.622154231900346, 9.441697254165272 ], [ 2.622114152608305, 9.4397349736539 ], [ 2.622980851092156, 9.438052641676311 ], [ 2.623981421563059, 9.431906604794415 ], [ 2.629647517903385, 9.427219307783304 ], [ 2.630464168541542, 9.423869291984168 ], [ 2.634058325900379, 9.420416024071576 ], [ 2.632186173459581, 9.414946460910715 ], [ 2.631314185310799, 9.411369292177209 ], [ 2.628409928551107, 9.405731779862421 ], [ 2.6253770921528, 9.401257496102163 ], [ 2.62330271059076, 9.396981677862909 ], [ 2.624747412203491, 9.392760486795723 ], [ 2.627223201774673, 9.387954679900879 ], [ 2.617166642592233, 9.379635486110578 ], [ 2.618847958047172, 9.378020292493838 ], [ 2.618797095350981, 9.375536466829747 ], [ 2.621103817476525, 9.372133553643371 ], [ 2.619629207805742, 9.366379871437978 ], [ 2.620564876665785, 9.359978199201372 ], [ 2.612149146171925, 9.357247384430066 ], [ 2.609729101456135, 9.353556079751829 ], [ 2.608784480815364, 9.348717213080821 ], [ 2.606214087539434, 9.34120785411743 ], [ 2.603797501933084, 9.338885975035231 ], [ 2.60298085174424, 9.338035958763529 ], [ 2.598797502215206, 9.336385975271497 ], [ 2.595641984579466, 9.33476040516962 ], [ 2.597147925021783, 9.328884753752853 ], [ 2.597091772755647, 9.326141325328553 ], [ 2.595463761744449, 9.321385059743253 ], [ 2.595489599701566, 9.320127633026166 ], [ 2.595410864617961, 9.316269296213823 ], [ 2.593797502065001, 9.314719308160985 ], [ 2.591547339229747, 9.312377287256416 ], [ 2.587948299506723, 9.306314461583858 ], [ 2.588068945877806, 9.300402597093525 ], [ 2.590089819868136, 9.298460966445594 ], [ 2.587993872602002, 9.296447213273172 ], [ 2.587147518350966, 9.294702625396598 ], [ 2.585464168681158, 9.293885975065139 ], [ 2.581599422463605, 9.291266345544267 ], [ 2.580472916549591, 9.285495777431905 ], [ 2.578765356893032, 9.283855151708705 ], [ 2.577147517916455, 9.278869291569027 ], [ 2.576297502188761, 9.277219308229277 ], [ 2.575406998917261, 9.270840015551025 ], [ 2.575481054800945, 9.267210966511085 ], [ 2.575463762090243, 9.266369901830842 ], [ 2.576348161542016, 9.264653288364718 ], [ 2.580156754694833, 9.262805550396052 ], [ 2.576297095385884, 9.253885263186234 ], [ 2.576315405515448, 9.252989470476532 ], [ 2.574530941262439, 9.249525216316325 ], [ 2.569719946261689, 9.244902922439485 ], [ 2.568269751123727, 9.241913725886263 ], [ 2.565464168149443, 9.24055264114156 ], [ 2.564647518201353, 9.239702624940898 ], [ 2.562296037375616, 9.23856187787333 ], [ 2.561298722486917, 9.235488453022311 ], [ 2.559630835430742, 9.233885975098305 ], [ 2.558007096785481, 9.228882007182715 ], [ 2.556229752818465, 9.228019783817986 ], [ 2.556330867926681, 9.223068307120991 ], [ 2.55539743646589, 9.221256580029246 ], [ 2.553763119049016, 9.219686349324009 ], [ 2.550889177083344, 9.219744942581045 ], [ 2.548389176635039, 9.219693978641539 ], [ 2.545667212128899, 9.219749520799857 ], [ 2.539087419019568, 9.224742195938932 ], [ 2.530840144709025, 9.22457394317615 ], [ 2.527980851456285, 9.225552641931994 ], [ 2.525416764273547, 9.226384754228128 ], [ 2.523069149207138, 9.228828093249481 ], [ 2.520464168925054, 9.230535958719351 ], [ 2.519206234364833, 9.231845366174625 ], [ 2.517147111591195, 9.229702319844671 ], [ 2.512847590998768, 9.229790007411751 ], [ 2.511314184721694, 9.231385974411745 ], [ 2.507850032762914, 9.232202625342135 ], [ 2.502688696658553, 9.230435962417118 ], [ 2.498691097732767, 9.228376534856423 ], [ 2.495472509660812, 9.230558236333389 ], [ 2.490471696005949, 9.227168445431307 ], [ 2.487139176888756, 9.227236499655877 ], [ 2.485414119559537, 9.227201302929604 ], [ 2.483814184545344, 9.225535958983098 ], [ 2.48213083555396, 9.224719308609036 ], [ 2.480905859263206, 9.223444284125756 ], [ 2.478251847924266, 9.220894336816821 ], [ 2.474630835245948, 9.219719308361761 ], [ 2.472980851828048, 9.218869291601129 ], [ 2.471297502083391, 9.21805264122677 ], [ 2.46969492195354, 9.216384753726954 ], [ 2.465872494163027, 9.215144316210223 ], [ 2.462099707345064, 9.213852913841167 ], [ 2.460055843144932, 9.213894621538451 ], [ 2.458805843448603, 9.213869088188856 ], [ 2.455405879833144, 9.213938567116475 ], [ 2.453814185065267, 9.217219307931357 ], [ 2.452130835602029, 9.21803595818956 ], [ 2.450480851214906, 9.218885974907343 ], [ 2.447082108418015, 9.219702625663853 ], [ 2.444438574936741, 9.216951160750179 ], [ 2.436857397767617, 9.218244292036781 ], [ 2.433174536393101, 9.216983712766318 ], [ 2.43128183619047, 9.218953622446056 ], [ 2.431318966335236, 9.220771655873442 ], [ 2.426496272642804, 9.219535694046964 ], [ 2.421314185014007, 9.223885975022545 ], [ 2.418797501864658, 9.22470262539635 ], [ 2.417980851328337, 9.225552641596902 ], [ 2.414954932139661, 9.226534493318386 ], [ 2.413814184840374, 9.228885975286941 ], [ 2.412964168595156, 9.229702624975289 ], [ 2.412131140276427, 9.230569629304165 ], [ 2.410055843477311, 9.23052731205375 ], [ 2.408026831016389, 9.230568714502315 ], [ 2.404523311522135, 9.229670785120609 ], [ 2.400588375385016, 9.229751147771397 ], [ 2.397023311696111, 9.228837451592101 ], [ 2.392555843016346, 9.228928699725488 ], [ 2.39016214659153, 9.223994719394932 ], [ 2.386170040542258, 9.223021513200626 ], [ 2.384545386334781, 9.223054675941665 ], [ 2.381218258260994, 9.22476874629033 ], [ 2.377064205531132, 9.224683908081733 ], [ 2.373847551177364, 9.221335926243468 ], [ 2.371297502296736, 9.218885975201541 ], [ 2.367980851799214, 9.214702624972521 ], [ 2.3658880575338, 9.21269192407062 ], [ 2.360464168252248, 9.210552641589951 ], [ 2.358756302772859, 9.207947660601848 ], [ 2.356922705203144, 9.206185983141808 ], [ 2.350127559298639, 9.20288927077819 ], [ 2.346173397048527, 9.197555204608184 ], [ 2.342980851881372, 9.199719308027557 ], [ 2.34038278800018, 9.200535958165284 ], [ 2.337147517851403, 9.198869291823232 ], [ 2.33539753844184, 9.19802029255243 ], [ 2.332996516832032, 9.198069324194966 ], [ 2.331314184835853, 9.197202625375823 ], [ 2.329564205553758, 9.196353626383639 ], [ 2.327555843754291, 9.196394621429976 ], [ 2.32452951724374, 9.196332873942959 ], [ 2.324647823503425, 9.190536873995889 ], [ 2.323777156842617, 9.187993233722244 ], [ 2.320464168233155, 9.186385974691119 ], [ 2.31727996406076, 9.184745655456052 ], [ 2.314630835051345, 9.183885974713554 ], [ 2.311803889844121, 9.182429676258922 ], [ 2.310480851112219, 9.179702625364769 ], [ 2.307015274918588, 9.178021309873403 ], [ 2.30464721327724, 9.178069629416591 ], [ 2.301456600248429, 9.174748910323716 ], [ 2.29865508650739, 9.17383968950335 ], [ 2.294690141011014, 9.16971300106708 ], [ 2.289808955797148, 9.168523120480005 ], [ 2.285593461158625, 9.16996599201557 ], [ 2.281314185228263, 9.168869292336456 ], [ 2.271589656449817, 9.167286243475338 ], [ 2.270480749861384, 9.163868986671899 ], [ 2.268805843012915, 9.16390316681345 ], [ 2.266338191973411, 9.163852812606951 ], [ 2.260764156287467, 9.166113758042492 ], [ 2.254799902896423, 9.167567717454892 ], [ 2.253814185256386, 9.165535958261868 ], [ 2.251297501830565, 9.162219307942404 ], [ 2.250480851098888, 9.160535958242249 ], [ 2.249630835058977, 9.158885974695727 ], [ 2.249222510004237, 9.156794300351134 ] ] ] } }
]
}
